CCSDS_OMM_VERS,COMMENT,CREATION_DATE,ORIGINATOR,OBJECT_NAME,OBJECT_ID,CENTER_NAME,REF_FRAME,TIME_SYSTEM,MEAN_ELEMENT_THEORY,EPOCH,MEAN_MOTION,ECCENTRICITY,INCLINATION,RA_OF_ASC_NODE,ARG_OF_PERICENTER,MEAN_ANOMALY,EPHEMERIS_TYPE,CLASSIFICATION_TYPE,NORAD_CAT_ID,ELEMENT_SET_NO,REV_AT_EPOCH,BSTAR,MEAN_MOTION_DOT,MEAN_MOTION_DDOT,SEMIMAJOR_AXIS,PERIOD,APOAPSIS,PERIAPSIS,OBJECT_TYPE,RCS_SIZE,COUNTRY_CODE,LAUNCH_DATE,SITE,DECAY_DATE,FILE,GP_ID,TLE_LINE0,TLE_LINE1,TLE_LINE2
"2.0","GENERATED VIA SPACE-TRACK.ORG API","2013-08-08T02:03:06","18 SPCS","PAYLOAD B","2013-037B","EARTH","TEME","UTC","SGP4","2013-08-08T03:00:04.608575","14.67215247","0.00034830","98.0555","237.4545","313.3692","46.7244","0","U","39209","999","280","0.00003771800000","0.00000165","0.0000000000000","7048.113","98.145","672.433","667.523","PAYLOAD","LARGE","PRC","2013-07-19","TSC","","1528622","93525287","0 PAYLOAD B","1 39209U 13037B   13220.12505334  .00000165  00000-0  37718-4 0  9990","2 39209 098.0555 237.4545 0003483 313.3692 046.7244 14.67215247  2808"
"2.0","GENERATED VIA SPACE-TRACK.ORG API","2013-08-08T02:04:17","18 SPCS","PAYLOAD C","2013-037C","EARTH","TEME","UTC","SGP4","2013-08-08T03:01:24.887136","14.66261345","0.00033220","98.0571","237.4550","314.1367","45.9570","0","U","39210","999","281","0.00001961900000","0.00000061","0.0000000000000","7051.170","98.208","675.377","670.692","PAYLOAD","LARGE","PRC","2013-07-19","TSC","","1528624","93525335","0 PAYLOAD C","1 39210U 13037C   13220.12598249  .00000061  00000-0  19619-4 0  9994","2 39210 098.0571 237.4550 0003322 314.1367 045.9570 14.66261345  2817"
"2.0","GENERATED VIA SPACE-TRACK.ORG API","2013-08-08T05:52:07","18 SPCS","PAYLOAD B","2013-037B","EARTH","TEME","UTC","SGP4","2013-08-08T06:16:29.046719","14.67215448","0.00034990","98.0555","237.5886","313.1654","46.9259","0","U","39209","999","282","0.00004444900000","0.00000202","0.0000000000000","7048.112","98.145","672.444","667.511","PAYLOAD","LARGE","PRC","2013-07-19","TSC","","1528663","93526266","0 PAYLOAD B","1 39209U 13037B   13220.26144730  .00000202  00000-0  44449-4 0  9995","2 39209 098.0555 237.5886 0003499 313.1654 046.9259 14.67215448  2823"
"2.0","GENERATED VIA SPACE-TRACK.ORG API","2013-08-08T05:52:07","18 SPCS","PAYLOAD A","2013-037A","EARTH","TEME","UTC","SGP4","2013-08-08T07:36:57.693888","14.68153283","0.00075710","98.0557","237.6734","315.0598","45.0006","0","U","39208","999","284","0.00005291600000","0.00000256","0.0000000000000","7045.111","98.082","672.310","661.642","PAYLOAD","LARGE","PRC","2013-07-19","TSC","","1528663","93526267","0 PAYLOAD A","1 39208U 13037A   13220.31733442  .00000256  00000-0  52916-4 0  9991","2 39208 098.0557 237.6734 0007571 315.0598 045.0006 14.68153283  2841"
"2.0","GENERATED VIA SPACE-TRACK.ORG API","2013-08-08T05:52:32","18 SPCS","PAYLOAD C","2013-037C","EARTH","TEME","UTC","SGP4","2013-08-08T07:56:13.077024","14.66261301","0.00033270","98.0571","237.6558","313.4523","46.6403","0","U","39210","999","284","0.00001420900000","0.00000031","0.0000000000000","7051.170","98.208","675.381","670.689","PAYLOAD","LARGE","PRC","2013-07-19","TSC","","1528664","93526278","0 PAYLOAD C","1 39210U 13037C   13220.33070691  .00000031  00000-0  14209-4 0  9990","2 39210 098.0571 237.6558 0003327 313.4523 046.6403 14.66261301  2846"
"2.0","GENERATED VIA SPACE-TRACK.ORG API","2013-08-08T18:11:33","18 SPCS","PAYLOAD A","2013-037A","EARTH","TEME","UTC","SGP4","2013-08-08T19:03:56.992031","14.68153458","0.00075330","98.0561","238.1434","313.4167","46.6404","0","U","39208","999","291","0.00005805100000","0.00000285","0.0000000000000","7045.110","98.082","672.282","661.668","PAYLOAD","LARGE","PRC","2013-07-19","TSC","","1529017","93531474","0 PAYLOAD A","1 39208U 13037A   13220.79440963  .00000285  00000-0  58051-4 0  9994","2 39208 098.0561 238.1434 0007533 313.4167 046.6404 14.68153458  2912"
"2.0","GENERATED VIA SPACE-TRACK.ORG API","2013-08-08T18:10:00","18 SPCS","PAYLOAD B","2013-037B","EARTH","TEME","UTC","SGP4","2013-08-08T19:22:06.918527","14.67215822","0.00034920","98.0553","238.1250","310.8956","49.1940","0","U","39209","999","290","0.00005144000000","0.00000242","0.0000000000000","7048.111","98.145","672.438","667.515","PAYLOAD","LARGE","PRC","2013-07-19","TSC","","1529016","93531471","0 PAYLOAD B","1 39209U 13037B   13220.80702452  .00000242  00000-0  51440-4 0  9999","2 39209 098.0553 238.1250 0003492 310.8956 049.1940 14.67215822  2902"
"2.0","GENERATED VIA SPACE-TRACK.ORG API","2013-08-08T18:13:15","18 SPCS","PAYLOAD C","2013-037C","EARTH","TEME","UTC","SGP4","2013-08-08T19:24:05.560415","14.66260744","0.00033520","98.0566","238.1245","311.4720","48.6190","0","U","39210","999","291","-0.00001535700000","-0.00000132","0.0000000000000","7051.172","98.208","675.400","670.673","PAYLOAD","LARGE","PRC","2013-07-19","TSC","","1529019","93531527","0 PAYLOAD C","1 39210U 13037C   13220.80839769 -.00000132  00000-0 -15357-4 0  9990","2 39210 098.0566 238.1245 0003352 311.4720 048.6190 14.66260744  2917"
"2.0","GENERATED VIA SPACE-TRACK.ORG API","2013-08-08T21:46:21","18 SPCS","PAYLOAD C","2013-037C","EARTH","TEME","UTC","SGP4","2013-08-09T01:56:29.233823","14.72802918","0.00007480","98.0570","238.3957","16.4050","343.3820","0","U","39210","999","295","-0.01252400000000","-0.00079153","0.0000000000000","7030.275","97.772","652.666","651.614","PAYLOAD","LARGE","PRC","2013-07-19","TSC","","1529047","93531792","0 PAYLOAD C","1 39210U 13037C   13221.08089391 -.00079153  00000-0 -12524-1 0  9998","2 39210 098.0570 238.3957 0000748 016.4050 343.3820 14.72802918  2959"
"2.0","GENERATED VIA SPACE-TRACK.ORG API","2013-08-08T21:02:32","18 SPCS","PAYLOAD C","2013-037C","EARTH","TEME","UTC","SGP4","2013-08-09T02:21:27.280224","14.73571677","0.00179140","98.0121","238.3871","231.7024","220.1800","0","U","39210","999","295","0.00001161300000","0.00000025","0.0000000000000","7027.830","97.721","662.285","637.105","PAYLOAD","LARGE","PRC","2013-07-19","TSC","","1529036","93531781","0 PAYLOAD C","1 39210U 13037C   13221.09823241  .00000025  00000-0  11613-4 0  9990","2 39210 098.0121 238.3871 0017914 231.7024 220.1800 14.73571677  2958"
"2.0","GENERATED VIA SPACE-TRACK.ORG API","2013-08-09T01:45:07","18 SPCS","PAYLOAD A","2013-037A","EARTH","TEME","UTC","SGP4","2013-08-09T03:14:39.333408","14.68154397","0.00075430","98.0560","238.4789","311.9500","48.1072","0","U","39208","999","296","0.00008679000000","0.00000451","0.0000000000000","7045.107","98.082","672.286","661.658","PAYLOAD","LARGE","PRC","2013-07-19","TSC","","1529184","93534430","0 PAYLOAD A","1 39208U 13037A   13221.13517747  .00000451  00000-0  86790-4 0  9994","2 39208 098.0560 238.4789 0007543 311.9500 048.1072 14.68154397  2968"
"2.0","GENERATED VIA SPACE-TRACK.ORG API","2013-08-09T01:45:07","18 SPCS","PAYLOAD B","2013-037B","EARTH","TEME","UTC","SGP4","2013-08-09T03:33:08.068320","14.67216659","0.00034860","98.0552","238.4602","309.0967","50.9944","0","U","39209","999","295","0.00006960700000","0.00000344","0.0000000000000","7048.109","98.145","672.431","667.517","PAYLOAD","LARGE","PRC","2013-07-19","TSC","","1529184","93534429","0 PAYLOAD B","1 39209U 13037B   13221.14801005  .00000344  00000-0  69607-4 0  9998","2 39209 098.0552 238.4602 0003486 309.0967 050.9944 14.67216659  2958"
"2.0","GENERATED VIA SPACE-TRACK.ORG API","2013-08-09T02:12:03","18 SPCS","PAYLOAD C","2013-037C","EARTH","TEME","UTC","SGP4","2013-08-09T06:50:03.763391","14.72864254","0.00010390","98.0569","238.5980","318.6023","41.5058","0","U","39210","999","298","0.01340100000000","0.00086851","0.0000000000000","7030.080","97.768","652.676","651.215","PAYLOAD","LARGE","PRC","2013-07-19","TSC","","1529194","93534670","0 PAYLOAD C","1 39210U 13037C   13221.28476578  .00086851  00000-0  13401-1 0  9993","2 39210 098.0569 238.5980 0001039 318.6023 041.5058 14.72864254  2980"
"2.0","GENERATED VIA SPACE-TRACK.ORG API","2013-08-09T09:40:28","18 SPCS","PAYLOAD B","2013-037B","EARTH","TEME","UTC","SGP4","2013-08-09T10:05:56.965343","14.67216852","0.00034840","98.0554","238.7284","308.0733","52.0158","0","U","39209","999","299","0.00006866000000","0.00000339","0.0000000000000","7048.108","98.145","672.429","667.517","PAYLOAD","LARGE","PRC","2013-07-19","TSC","","1529315","93537280","0 PAYLOAD B","1 39209U 13037B   13221.42079821  .00000339  00000-0  68660-4 0  9994","2 39209 098.0554 238.7284 0003484 308.0733 052.0158 14.67216852  2996"
"2.0","GENERATED VIA SPACE-TRACK.ORG API","2013-08-09T05:21:13","18 SPCS","PAYLOAD C","2013-037C","EARTH","TEME","UTC","SGP4","2013-08-09T10:39:00.335232","14.68674221","0.00231160","98.0811","238.6908","357.3222","123.6429","0","U","39210","999","300","0.01340100000000","0.00079141","0.0000000000000","7043.445","98.047","681.591","649.028","PAYLOAD","LARGE","PRC","2013-07-19","TSC","","1529196","93534672","0 PAYLOAD C","1 39210U 13037C   13221.44375388  .00079141  00000-0  13401-1 0  9992","2 39210 098.0811 238.6908 0023116 357.3222 123.6429 14.68674221  3008"
"2.0","GENERATED VIA SPACE-TRACK.ORG API","2013-08-09T09:40:28","18 SPCS","PAYLOAD A","2013-037A","EARTH","TEME","UTC","SGP4","2013-08-09T11:25:21.657503","14.68154691","0.00075350","98.0563","238.8144","310.8386","49.2165","0","U","39208","999","301","0.00008404600000","0.00000435","0.0000000000000","7045.106","98.082","672.280","661.663","PAYLOAD","LARGE","PRC","2013-07-19","TSC","","1529315","93537282","0 PAYLOAD A","1 39208U 13037A   13221.47594511  .00000435  00000-0  84046-4 0  9999","2 39208 098.0563 238.8144 0007535 310.8386 049.2165 14.68154691  3010"
